Name,Type,Address,County,City,State,Zip_code,Latitude,Longitude,NumPanels,YearlyEnergy (kWh),SolarArea (mÂ²)
Waffle House,"meal_takeaway, restaurant, food, point_of_interest, establishment","135 Andrew Young International Blvd NW, Atlanta, GA 30303, USA",Fulton County,Atlanta,GA,30303,33.7599121,-84.3917791,187,95383.58,367.18475
Waffle House,"meal_takeaway, restaurant, food, point_of_interest, establishment","1099 Northside Dr NW, Atlanta, GA 30318, USA",Fulton County,Atlanta,GA,30318,33.78469870000001,-84.40707139999999,37,20495.861,72.65153
Waffle House,"meal_takeaway, restaurant, food, point_of_interest, establishment","1700 Howell Mill Rd, Atlanta, GA 30318, USA",Fulton County,Atlanta,GA,30318,33.8007561,-84.4162202,50,28462.643,98.17774
Waffle House,"meal_takeaway, restaurant, food, point_of_interest, establishment","66 5th St NW, Atlanta, GA 30332, USA",Fulton County,Atlanta,GA,30332,33.7766569,-84.38946240000001,5049,2802733.8,9913.988
Waffle House,"meal_takeaway, restaurant, food, point_of_interest, establishment","2581 Piedmont Rd NE, Atlanta, GA 30324, USA",Fulton County,Atlanta,GA,30324,33.8256085,-84.3659725,52,26215.572,102.10485
Waffle House,"meal_takeaway, restaurant, food, point_of_interest, establishment","760 Dekalb Industrial Way, Decatur, GA 30033, USA",DeKalb County,Decatur,GA,30033,33.7986062,-84.2804963,39,17669.615,76.578636
Waffle House,"meal_takeaway, restaurant, food, point_of_interest, establishment","1674 Washington Rd, East Point, GA 30344, USA",Fulton County,East Point,GA,30344,33.6752749,-84.4436589,26,14194.964,51.052425
Waffle House,"meal_takeaway, restaurant, food, point_of_interest, establishment","1227 Virginia Ave, East Point, GA 30344, USA",Fulton County,East Point,GA,30344,33.6593232,-84.4292237,34,18793.416,66.760864
Waffle House,"meal_takeaway, restaurant, food, point_of_interest, establishment","3016 Piedmont Rd, Atlanta, GA 30305, USA",Fulton County,Atlanta,GA,30305,33.8373795,-84.36860089999999,32,18515.559,62.833755
Waffle House,"meal_takeaway, restaurant, food, point_of_interest, establishment","100 Piedmont Ave SE, Atlanta, GA 30303, USA",Fulton County,Atlanta,GA,30303,33.7510338,-84.385576,782,424878,1535.4999
Waffle House,"meal_takeaway, restaurant, food, point_of_interest, establishment","860 Glenwood Ave SE, Atlanta, GA 30316, USA",Fulton County,Atlanta,GA,30316,33.7407582,-84.36184109999999,30,16912.852,58.906647
Waffle House,"meal_takeaway, restaurant, food, point_of_interest, establishment","2264 Cheshire Bridge Rd NE, Atlanta, GA 30324, USA",Fulton County,Atlanta,GA,30324,33.8169549,-84.35259289999999,36,16853.97,70.68797
Waffle House,"meal_takeaway, restaurant, food, point_of_interest, establishment","1425 Virginia Ave, College Park, GA 30337, USA",Fulton County,College Park,GA,30337,33.6595264,-84.4358105,34,19448.04,66.760864
Waffle House,"meal_takeaway, restaurant, food, point_of_interest, establishment","839 Virginia Ave, Hapeville, GA 30354, USA",Fulton County,Hapeville,GA,30354,33.6592181,-84.41673469999999,37,21690.281,72.65153
Waffle House,"meal_takeaway, restaurant, food, point_of_interest, establishment","2025 Bolton Rd NW, Atlanta, GA 30318, USA",Fulton County,Atlanta,GA,30318,33.8107196,-84.4753796,38,21607.639,74.61508
Waffle House,"meal_takeaway, restaurant, food, point_of_interest, establishment","2914 Memorial Dr SE, Atlanta, GA 30317, USA",DeKalb County,Atlanta,GA,30317,33.7473669,-84.29117870000002,34,18186.2,66.760864
Waffle House,"meal_takeaway, restaurant, food, point_of_interest, establishment","2812 Buford Hwy NE, Atlanta, GA 30329, USA",DeKalb County,Atlanta,GA,30329,33.8309515,-84.3439566,25,12723.396,49.08887
Waffle House,"meal_takeaway, restaurant, food, point_of_interest, establishment","2886 Clairmont Rd, Atlanta, GA 30329, USA",DeKalb County,Atlanta,GA,30329,33.8411294,-84.31404239999999,31,17080.53,60.8702
Waffle House,"meal_takeaway, restaurant, point_of_interest, food, establishment","2642 Windy Hill Rd SE, Marietta, GA 30067, USA",Cobb County,Marietta,GA,30067,33.9005659,-84.47720679999999,27,15361.468,53.01598
Waffle House,"meal_takeaway, restaurant, point_of_interest, food, establishment","4532 Chamblee Dunwoody Rd, Atlanta, GA 30338, USA",DeKalb County,Atlanta,GA,30338,33.9236119,-84.3151888,89,54230.64,174.75638
Waffle House,"meal_takeaway, restaurant, point_of_interest, food, establishment","2805 Delk Rd, Marietta, GA 30067, USA",Cobb County,Marietta,GA,30067,33.9244396,-84.4699918,12,6758.0786,23.562658
Waffle House,"meal_takeaway, restaurant, point_of_interest, food, establishment","5071 Peachtree Industrial Blvd, Chamblee, GA 30341, USA",DeKalb County,Chamblee,GA,30341,33.8879772,-84.3133756,35,20484.91,68.72442
Waffle House,"meal_takeaway, restaurant, point_of_interest, food, establishment","3735 Roswell Rd, Atlanta, GA 30342, USA",Fulton County,Atlanta,GA,30342,33.8570616,-84.3817412,32,16774.11,62.833755
Waffle House,"meal_takeaway, restaurant, point_of_interest, food, establishment","2758 Cobb Pkwy SE, Atlanta, GA 30339, USA",Cobb County,Atlanta,GA,30339,33.885114,-84.4717546,17,8788.488,33.380432
Waffle House,"meal_takeaway, restaurant, point_of_interest, food, establishment","6445 Roswell Rd, Sandy Springs, GA 30328, USA",Fulton County,Sandy Springs,GA,30328,33.9308491,-84.3792776,33,17723.191,64.79731
Waffle House,"meal_takeaway, restaurant, point_of_interest, food, establishment","920 Cobb Pkwy SE, Marietta, GA 30060, USA",Cobb County,Marietta,GA,30060,33.9296508,-84.5097055,29,16864.488,56.943092
Waffle House,"meal_takeaway, restaurant, point_of_interest, food, establishment","4458 Atlanta Rd, Smyrna, GA 30080, USA",Cobb County,Smyrna,GA,30080,33.84481,-84.49083999999999,31,18369.955,60.8702
Waffle House,"meal_takeaway, restaurant, point_of_interest, food, establishment","5565 Northside Dr NW, Atlanta, GA 30327, USA",Fulton County,Atlanta,GA,30327,33.9058722,-84.4309497,5,2518.9985,9.817774
Waffle House,"meal_takeaway, restaurant, point_of_interest, food, establishment","4065 Peachtree Rd, Atlanta, GA 30319, USA",DeKalb County,Atlanta,GA,30319,33.8610705,-84.33907980000001,26,15540.145,51.052425
Waffle House,"meal_takeaway, restaurant, point_of_interest, food, establishment","4852 Old National Hwy, College Park, GA 30337, USA",Fulton County,College Park,GA,30337,33.6232024,-84.47388629999999,84,43103.785,164.93861
Waffle House,"meal_takeaway, restaurant, point_of_interest, food, establishment","4995 Old National Hwy, College Park, GA 30349, USA",Fulton County,College Park,GA,30349,33.6190534,-84.47368139999999,19,10140.07,37.30754
Waffle House,"meal_takeaway, restaurant, point_of_interest, food, establishment","5480 Riverdale Rd, College Park, GA 30349, USA",Clayton County,College Park,GA,30349,33.6058134,-84.43488119999999,25,13894.592,49.08887
Waffle House,"meal_takeaway, restaurant, point_of_interest, food, establishment","2735 Forest Pkwy, Ellenwood, GA 30294, USA",Clayton County,Ellenwood,GA,30294,33.6119895,-84.3004624,31,17590.508,60.8702
Waffle House,"meal_takeaway, restaurant, point_of_interest, food, establishment","109 Forest Pkwy, Forest Park, GA 30297, USA",Clayton County,Forest Park,GA,30297,33.6185529,-84.386594,27,15928.389,53.01598
Waffle House,"meal_takeaway, restaurant, point_of_interest, food, establishment","5195 Jonesboro Rd, Lake City, GA 30260, USA",Clayton County,Lake City,GA,30260,33.6129259,-84.3491965,28,16573.322,54.979538
Waffle House,"meal_takeaway, restaurant, point_of_interest, food, establishment","3036 Anvilblock Rd, Ellenwood, GA 30294, USA",Clayton County,Ellenwood,GA,30294,33.6341826,-84.28922349999999,23,12606.904,45.161762
Waffle House,"meal_takeaway, restaurant, food, point_of_interest, establishment","3916 Flat Shoals Pkwy, Decatur, GA 30034, USA",DeKalb County,Decatur,GA,30034,33.6943529,-84.26122400000001,34,18976.176,66.760864
Waffle House,"meal_takeaway, restaurant, food, point_of_interest, establishment","1194 Columbia Dr, Decatur, GA 30032, USA",DeKalb County,Decatur,GA,30032,33.7543474,-84.2664824,98,56700.945,192.42838
Waffle House,"meal_takeaway, restaurant, food, point_of_interest, establishment","2548 Wesley Chapel Rd, Decatur, GA 30035, USA",DeKalb County,Decatur,GA,30035,33.713935,-84.21583969999999,20,12107.574,39.271095
Waffle House,"meal_takeaway, restaurant, food, point_of_interest, establishment","4740 Flat Shoals Pkwy, Decatur, GA 30034, USA",DeKalb County,Decatur,GA,30034,33.6833081,-84.23296719999999,38,22145.92,74.61508
Waffle House,"meal_takeaway, restaurant, food, point_of_interest, establishment","4300 Covington Hwy, Decatur, GA 30035, USA",DeKalb County,Decatur,GA,30035,33.7506001,-84.2275895,20,11194.422,39.271095
Waffle House,"meal_takeaway, restaurant, food, point_of_interest, establishment","2963 Lawrenceville Hwy, Tucker, GA 30084, USA",DeKalb County,Tucker,GA,30084,33.8286068,-84.2493746,16,8883.826,31.416878
Waffle House,"meal_takeaway, restaurant, food, point_of_interest, establishment","1856 Mountain Industrial Blvd, Tucker, GA 30084, USA",DeKalb County,Tucker,GA,30084,33.8378251,-84.2014165,37,21093.697,72.65153
Waffle House,"meal_takeaway, restaurant, food, point_of_interest, establishment","4737 Redan Rd, Stone Mountain, GA 30088, USA",DeKalb County,Stone Mountain,GA,30088,33.7617539,-84.19793039999999,26,15227.409,51.052425
Waffle House,"meal_takeaway, restaurant, point_of_interest, food, establishment","5970 Memorial Dr, Stone Mountain, GA 30083, USA",DeKalb County,Stone Mountain,GA,30083,33.8021614,-84.1948353,,,
Waffle House,"meal_takeaway, restaurant, point_of_interest, food, establishment","2850 E College Ave, Decatur, GA 30030, USA",DeKalb County,Decatur,GA,30030,33.7755466,-84.2737957,36,21111.125,70.68797
Waffle House,"meal_takeaway, restaurant, food, point_of_interest, establishment","5602 Mableton Pkwy SW, Mableton, GA 30126, USA",Cobb County,Mableton,GA,30126,33.8175799,-84.57628059999999,31,16801.37,60.8702
Waffle House,"meal_takeaway, restaurant, food, point_of_interest, establishment","6035 Bakers Ferry Rd, Atlanta, GA 30336, USA",Fulton County,Atlanta,GA,30336,33.7294539,-84.5729245,24,13977.51,47.125317
Waffle House,"meal_takeaway, restaurant, food, point_of_interest, establishment","613 Thornton Rd, Lithia Springs, GA 30122, USA",Douglas County,Lithia Springs,GA,30122,33.7880415,-84.62163629999999,19,10643.172,37.30754
Waffle House,"meal_takeaway, restaurant, food, point_of_interest, establishment","1395 Highlands Ridge Rd SE, Smyrna, GA 30082, USA",Cobb County,Smyrna,GA,30082,33.840534,-84.5193341,31,18498.848,60.8702
Waffle House,"meal_takeaway, restaurant, food, point_of_interest, establishment","908 Thornton Rd, Lithia Springs, GA 30122, USA",Douglas County,Lithia Springs,GA,30122,33.7796743,-84.606597,43,25413.01,84.43286
Waffle House,"meal_takeaway, restaurant, food, point_of_interest, establishment","1450 Veterans Memorial Hwy SE, Mableton, GA 30126, USA",Cobb County,Mableton,GA,30126,33.7985542,-84.51281159999999,31,17413.96,60.8702
Waffle House,"meal_takeaway, restaurant, food, point_of_interest, establishment","1515 McFarland Pkwy, Alpharetta, GA 30005, USA",Forsyth County,Alpharetta,GA,30005,34.1109225,-84.2196591,4,2085.1838,7.8542194
Waffle House,"meal_takeaway, restaurant, food, point_of_interest, establishment","8604 Roswell Rd, Sandy Springs, GA 30350, USA",Fulton County,Sandy Springs,GA,30350,33.9896493,-84.3521305,19,10084.181,37.30754
Waffle House,"meal_takeaway, restaurant, food, point_of_interest, establishment","1470 Holcomb Bridge Rd, Roswell, GA 30076, USA",Fulton County,Roswell,GA,30076,34.0206258,-84.318066,33,18991.105,64.79731
Waffle House,"meal_takeaway, restaurant, food, point_of_interest, establishment","3319 Old Milton Pkwy, Alpharetta, GA 30005, USA",Fulton County,Alpharetta,GA,30005,34.0684062,-84.26808799999999,27,14366.094,53.01598
Waffle House,"meal_takeaway, restaurant, food, point_of_interest, establishment","2850 Holcomb Bridge Rd, Alpharetta, GA 30022, USA",Fulton County,Alpharetta,GA,30022,33.991171,-84.278446,274,168280.52,538.01404
Waffle House,"meal_takeaway, restaurant, food, point_of_interest, establishment","5365 Peachtree Industrial Blvd, Norcross, GA 30092, USA",Gwinnett County,Norcross,GA,30092,33.96141790000001,-84.2093437,27,15038.503,53.01598
Waffle House,"meal_takeaway, restaurant, food, point_of_interest, establishment","12370 A, Arnold Mill Rd, Alpharetta, GA 30004, USA",Fulton County,Alpharetta,GA,30004,34.0829408,-84.3583579,191,116799.59,375.03897
Waffle House,"meal_takeaway, restaurant, food, point_of_interest, establishment","2940 Mansell Rd, Alpharetta, GA 30022, USA",Fulton County,Alpharetta,GA,30022,34.0379115,-84.2978811,54,28073.13,106.03196
Waffle House,"meal_takeaway, restaurant, food, point_of_interest, establishment","10792 Jones Bridge Rd, Johns Creek, GA 30022, USA",Fulton County,Johns Creek,GA,30022,34.045555,-84.22460679999999,14,5691.5903,27.489769
Waffle House,"meal_takeaway, restaurant, food, point_of_interest, establishment","250 Northridge Rd, Sandy Springs, GA 30350, USA",Fulton County,Sandy Springs,GA,30350,33.9820487,-84.3491727,31,16546.152,60.8702
Waffle House,"meal_takeaway, restaurant, food, point_of_interest, establishment","571 S Main St, Alpharetta, GA 30009, USA",Fulton County,Alpharetta,GA,30009,34.0665605,-84.3098984,58,31121.666,113.886185
Waffle House,"meal_takeaway, restaurant, food, point_of_interest, establishment","9650 Medlock Bridge Rd, Johns Creek, GA 30097, USA",Fulton County,Johns Creek,GA,30097,34.0165331,-84.19113329999999,42,25071.824,82.46931
Waffle House,"meal_takeaway, restaurant, point_of_interest, food, establishment","1586 Indian Trail Lilburn Rd NW, Norcross, GA 30093, USA",Gwinnett County,Norcross,GA,30093,33.9219957,-84.1706245,8,4697.027,15.708439
Waffle House,"meal_takeaway, restaurant, point_of_interest, food, establishment","2816 Chamblee Tucker Rd, Atlanta, GA 30341, USA",DeKalb County,Atlanta,GA,30341,33.8802741,-84.27411190000001,36,21355.273,70.68797
Waffle House,"meal_takeaway, restaurant, point_of_interest, food, establishment","5565 Buford Hwy, Norcross, GA 30071, USA",Gwinnett County,Norcross,GA,30071,33.9437706,-84.2058563,31,17108.377,60.8702
Waffle House,"meal_takeaway, restaurant, point_of_interest, food, establishment","4274 Lavista Rd, Tucker, GA 30084, USA",DeKalb County,Tucker,GA,30084,33.8478118,-84.2441994,32,19373.127,62.833755
Waffle House,"meal_takeaway, restaurant, point_of_interest, food, establishment","5990 Lawrenceville Hwy, Tucker, GA 30084, USA",Gwinnett County,Tucker,GA,30084,33.8715221,-84.1747302,23,11691.586,45.161762
Waffle House,"meal_takeaway, restaurant, point_of_interest, food, establishment","7044 Jimmy Carter Blvd, Norcross, GA 30092, USA",Gwinnett County,Norcross,GA,30092,33.9460609,-84.2412774,24,13748.722,47.125317
Waffle House,"meal_takeaway, restaurant, point_of_interest, food, establishment","4375 Tilly Mill Rd, Doraville, GA 30360, USA",DeKalb County,Doraville,GA,30360,33.9227532,-84.2806506,43,24021.303,84.43286
Waffle House,"meal_takeaway, restaurant, point_of_interest, food, establishment","6079 Goshen Springs Rd, Norcross, GA 30071, USA",Gwinnett County,Norcross,GA,30071,33.91584150000001,-84.2079317,11,6697.603,21.599104
Waffle House,"meal_takeaway, restaurant, point_of_interest, food, establishment","5598 Buford Hwy NE, Doraville, GA 30340, USA",DeKalb County,Doraville,GA,30340,33.9044922,-84.2729693,21,12346.611,41.234653
Waffle House,"meal_takeaway, restaurant, point_of_interest, food, establishment","3180 Tucker Norcross Rd, Tucker, GA 30084, USA",DeKalb County,Tucker,GA,30084,33.8823498,-84.2201541,31,18354.428,60.8702
Waffle House Corporate Offices,"restaurant, point_of_interest, food, establishment","5986 Financial Dr NW, Norcross, GA 30071, USA",Gwinnett County,Norcross,GA,30071,33.9186971,-84.2062162,730,432267.7,1433.395
Waffle House,"meal_takeaway, restaurant, food, point_of_interest, establishment","6375 Jonesboro Rd, Morrow, GA 30260, USA",Clayton County,Morrow,GA,30260,33.5811077,-84.34047369999999,28,16469.47,54.979538
Waffle House,"meal_takeaway, restaurant, food, point_of_interest, establishment","4370 Jonesboro Rd, Union City, GA 30291, USA",Fulton County,Union City,GA,30291,33.5665246,-84.5323413,48,26401.313,94.25063
Waffle House,"meal_takeaway, restaurant, food, point_of_interest, establishment","6544 GA-85, Riverdale, GA 30274, USA",Clayton County,Riverdale,GA,30274,33.5765212,-84.4116652,28,16924.633,54.979538
Waffle House,"meal_takeaway, restaurant, food, point_of_interest, establishment","3800 Flat Shoals Rd, Union City, GA 30291, USA",Fulton County,Union City,GA,30291,33.5853155,-84.5153666,17,9287.46,33.380432
Waffle House,"meal_takeaway, restaurant, food, point_of_interest, establishment","1640 Mt Zion Rd, Morrow, GA 30260, USA",Clayton County,Morrow,GA,30260,33.571744,-84.3361896,8,4524.6865,15.708439
Waffle House,"meal_takeaway, restaurant, food, point_of_interest, establishment","6350 Tara Blvd, Jonesboro, GA 30236, USA",Clayton County,Jonesboro,GA,30236,33.5808924,-84.3753,60,34085.492,117.81329
Waffle House,"meal_takeaway, restaurant, food, point_of_interest, establishment","669 GA-138, Riverdale, GA 30274, USA",Clayton County,Riverdale,GA,30274,33.5488149,-84.41219869999999,24,14583.641,47.125317
Waffle House,"meal_takeaway, restaurant, food, point_of_interest, establishment","2130 Mt Zion Pkwy, Morrow, GA 30260, USA",Clayton County,Morrow,GA,30260,33.5625459,-84.3207497,47,27893.506,92.28708
Waffle House,"meal_takeaway, restaurant, point_of_interest, food, establishment","5310 CAMPBELLTON, Fairburn, GA 30213, USA",Fulton County,Fairburn,GA,30213,33.61378,-84.61233519999999,28,16223.351,54.979538
Waffle House,"meal_takeaway, restaurant, point_of_interest, food, establishment","7800 Senoia Rd, Fairburn, GA 30213, USA",Fulton County,Fairburn,GA,30213,33.5442892,-84.5764863,23,13839.213,45.161762
Waffle House,"meal_takeaway, restaurant, point_of_interest, food, establishment","115 Stephens Ct, Tyrone, GA 30290, USA",Fayette County,Tyrone,GA,30290,33.488532,-84.584437,,,
Waffle House,"meal_takeaway, restaurant, food, point_of_interest, establishment","2725 Loganville Hwy SW, Loganville, GA 30052, USA",Gwinnett County,Loganville,GA,30052,33.8804255,-83.938182,39,23040.32,76.578636
Waffle House,"meal_takeaway, restaurant, food, point_of_interest, establishment","484 Indian Trail Lilburn Rd NW, Lilburn, GA 30047, USA",Gwinnett County,Lilburn,GA,30047,33.8966581,-84.1399344,54,32433.648,106.03196
Waffle House,"meal_takeaway, restaurant, food, point_of_interest, establishment","3915 Lawrenceville Hwy, Lilburn, GA 30047, USA",Gwinnett County,Lilburn,GA,30047,33.9064282,-84.1118664,9,5339.916,17.671993
Waffle House,"meal_takeaway, restaurant, food, point_of_interest, establishment","2915 Lawrenceville-Suwanee Rd, Suwanee, GA 30024, USA",Gwinnett County,Suwanee,GA,30024,34.0276901,-84.0453428,63,37733.15,123.70396
Waffle House,"meal_takeaway, restaurant, food, point_of_interest, establishment","1205 Lakes Pkwy, Lawrenceville, GA 30043, USA",Gwinnett County,Lawrenceville,GA,30043,33.9639814,-84.0376209,37,22089.69,72.65153
Waffle House,"meal_takeaway, restaurant, food, point_of_interest, establishment","455 Bethesda School Rd, Lawrenceville, GA 30044, USA",Gwinnett County,Lawrenceville,GA,30044,33.9229622,-84.084448,23,11842.356,45.161762
Waffle House,"meal_takeaway, restaurant, food, point_of_interest, establishment","1255 Scenic Hwy S, Lawrenceville, GA 30045, USA",Gwinnett County,Lawrenceville,GA,30045,33.8999454,-84.0061454,24,13798.876,47.125317
Waffle House,"meal_takeaway, restaurant, food, point_of_interest, establishment","4135 Sugarloaf Pkwy, Lawrenceville, GA 30044, USA",Gwinnett County,Lawrenceville,GA,30044,33.9395294,-84.0343149,31,18395.55,60.8702
Waffle House,"meal_takeaway, restaurant, food, point_of_interest, establishment","1825 Pleasant Hill Rd, Duluth, GA 30096, USA",Gwinnett County,Duluth,GA,30096,33.9499207,-84.1289394,30,17863.898,58.906647
Waffle House,"meal_takeaway, restaurant, food, point_of_interest, establishment","219 Grayson Hwy, Lawrenceville, GA 30046, USA",Gwinnett County,Lawrenceville,GA,30046,33.9462022,-83.9858058,30,18065.26,58.906647
Waffle House,"meal_takeaway, restaurant, food, point_of_interest, establishment","1935 Braselton Hwy, Buford, GA 30519, USA",Gwinnett County,Buford,GA,30519,34.0357143,-83.9532912,32,16485.258,62.833755
Waffle House,"meal_takeaway, restaurant, food, point_of_interest, establishment","926 Pleasant Hill Rd, Lawrenceville, GA 30044, USA",Gwinnett County,Lawrenceville,GA,30044,33.9257478,-84.1139178,21,12468.966,41.234653
Waffle House,"meal_takeaway, restaurant, food, point_of_interest, establishment","3335 Steve Reynolds Blvd, Duluth, GA 30096, USA",Gwinnett County,Duluth,GA,30096,33.9536084,-84.14146749999999,20,11990.505,39.271095
Waffle House,"meal_takeaway, restaurant, food, point_of_interest, establishment","2320 Satellite Blvd, Duluth, GA 30096, USA",Gwinnett County,Duluth,GA,30096,33.976942,-84.092912,309,186782.13,606.73846
Waffle House,"meal_takeaway, restaurant, food, point_of_interest, establishment","932 Buford Dr, Lawrenceville, GA 30043, USA",Gwinnett County,Lawrenceville,GA,30043,33.9884677,-83.984693,26,15926.346,51.052425
Waffle House,"meal_takeaway, restaurant, food, point_of_interest, establishment","2250 Peachtree Industrial Blvd, Duluth, GA 30097, USA",Gwinnett County,Duluth,GA,30097,34.0206979,-84.1227541,31,17422.98,60.8702
Waffle House,"meal_takeaway, restaurant, food, point_of_interest, establishment","1100 Old Peachtree Rd NW, Duluth, GA 30097, USA",Gwinnett County,Duluth,GA,30097,34.0013913,-84.07652689999999,34,20471.08,66.760864
Waffle House,"meal_takeaway, restaurant, point_of_interest, food, establishment","772 Dacula Rd, Dacula, GA 30019, USA",Gwinnett County,Dacula,GA,30019,34.0052404,-83.9134052,23,13689.363,45.161762
Waffle House,"meal_takeaway, restaurant, point_of_interest, food, establishment","1960 Main St E SUITE B, Snellville, GA 30078, USA",Gwinnett County,Snellville,GA,30078,33.8556529,-83.9947408,31,17087.027,60.8702
Waffle House,"meal_takeaway, restaurant, point_of_interest, food, establishment","3871 US-78, Snellville, GA 30039, USA",Gwinnett County,Snellville,GA,30039,33.840214,-84.0651261,38,22851.805,74.61508
Waffle House,"meal_takeaway, restaurant, point_of_interest, food, establishment","4752 US-78, Loganville, GA 30052, USA",Walton County,Loganville,GA,30052,33.8337107,-83.8843488,18,10693.559,35.343987
Waffle House,"meal_takeaway, restaurant, food, point_of_interest, establishment","195 Eagles Landing Pkwy, Stockbridge, GA 30281, USA",Henry County,Stockbridge,GA,30281,33.5178179,-84.19261449999999,124,76365.91,243.4808
Waffle House,"meal_takeaway, restaurant, food, point_of_interest, establishment","1480 Jonesboro Rd, McDonough, GA 30253, USA",Henry County,McDonough,GA,30253,33.4623579,-84.2030724,20,11315.186,39.271095
Waffle House,"meal_takeaway, restaurant, food, point_of_interest, establishment","1000 GA-155 S, McDonough, GA 30253, USA",Henry County,McDonough,GA,30253,33.4090366,-84.16532749999999,37,21977.701,72.65153
Waffle House,"meal_takeaway, restaurant, food, point_of_interest, establishment","1727 Hudson Bridge Rd, Stockbridge, GA 30281, USA",Henry County,Stockbridge,GA,30281,33.5014533,-84.24255,25,15200.963,49.08887
Waffle House,"meal_takeaway, restaurant, food, point_of_interest, establishment","265 Jonesboro Rd, McDonough, GA 30253, USA",Henry County,McDonough,GA,30253,33.4525567,-84.1668868,26,14989.541,51.052425
Waffle House,"meal_takeaway, restaurant, food, point_of_interest, establishment","1305 GA-20, McDonough, GA 30253, USA",Henry County,McDonough,GA,30253,33.4228595,-84.18526709999999,36,22282.516,70.68797
Waffle House,"meal_takeaway, restaurant, food, point_of_interest, establishment","2045 GA-155 N, McDonough, GA 30252, USA",Henry County,McDonough,GA,30252,33.5060439,-84.1421326,18,9770.111,35.343987
Waffle House,"meal_takeaway, restaurant, food, point_of_interest, establishment","105 Country Club Dr, Stockbridge, GA 30281, USA",Henry County,Stockbridge,GA,30281,33.5060971,-84.2277046,29,17249.377,56.943092
Waffle House,"meal_takeaway, restaurant, point_of_interest, food, establishment","4065 Forsyth Rd, Macon, GA 31210, USA",Bibb County,Macon,GA,31210,32.8648384,-83.69161799999999,56,28364.719,109.959076
Waffle House,"meal_takeaway, restaurant, point_of_interest, food, establishment","840 Riverside Dr, Macon, GA 31201, USA",Bibb County,Macon,GA,31201,32.8424299,-83.629452,33,20720.262,64.79731
Waffle House,"meal_takeaway, restaurant, point_of_interest, food, establishment","5440 Bowman Rd, Macon, GA 31210, USA",Bibb County,Macon,GA,31210,32.9261105,-83.73366229999999,48,28557.936,94.25063
Waffle House,"meal_takeaway, restaurant, point_of_interest, food, establishment","1330 Gray Hwy, Macon, GA 31211, USA",Bibb County,Macon,GA,31211,32.8613566,-83.6145032,38,23456.855,74.61508
Waffle House,"meal_takeaway, restaurant, point_of_interest, food, establishment","4285 Pio Nono Ave, Macon, GA 31206, USA",Bibb County,Macon,GA,31206,32.7859851,-83.6677727,39,23778.51,76.578636
Waffle House,"meal_takeaway, restaurant, point_of_interest, food, establishment","4731 Chambers Rd, Macon, GA 31206, USA",Bibb County,Macon,GA,31206,32.8085859,-83.72329649999999,29,17964.762,56.943092
Waffle House,"meal_takeaway, restaurant, point_of_interest, food, establishment","5146 Mercer University Dr, Macon, GA 31210, USA",Bibb County,Macon,GA,31210,32.8321919,-83.7309791,35,21550.174,68.72442
Waffle House,"meal_takeaway, restaurant, point_of_interest, food, establishment","3907 Arkwright Rd, Macon, GA 31210, USA",Bibb County,Macon,GA,31210,32.906,-83.6866651,42,25483.877,82.46931
Waffle House,"meal_takeaway, restaurant, point_of_interest, food, establishment","2644 Riverside Dr, Macon, GA 31204, USA",Bibb County,Macon,GA,31204,32.8741295,-83.66379189999999,17,10136.68,33.380432
Waffle House,"meal_takeaway, restaurant, point_of_interest, food, establishment","4475 Ocmulgee E Blvd, Macon, GA 31217, USA",Bibb County,Macon,GA,31217,32.8054701,-83.5694816,21,11991.63,41.234653
Waffle House,"meal_takeaway, restaurant, point_of_interest, food, establishment","3417 Wrightsboro Rd, Augusta, GA 30909, USA",Richmond County,Augusta,GA,30909,33.4685313,-82.0771022,30,17725.295,58.906647
Waffle House,"meal_takeaway, restaurant, point_of_interest, food, establishment","2951 Washington Rd, Augusta, GA 30909, USA",Richmond County,Augusta,GA,30909,33.511982,-82.0400964,33,17826.47,64.79731
Waffle House,"meal_takeaway, restaurant, point_of_interest, food, establishment","3408 Mike Padgett Hwy HY, Augusta, GA 30906, USA",Richmond County,Augusta,GA,30906,33.3993569,-82.00515480000001,41,25951.867,80.50575
Waffle House,"meal_takeaway, restaurant, point_of_interest, food, establishment","3164 Deans Bridge Rd, Augusta, GA 30906, USA",Richmond County,Augusta,GA,30906,33.4218789,-82.0616328,29,18068.854,56.943092
Waffle House,"meal_takeaway, restaurant, point_of_interest, food, establishment","3042 Washington Rd, Augusta, GA 30907, USA",Richmond County,Augusta,GA,30907,33.51253570000001,-82.04918839999999,32,18989.61,62.833755
Waffle House,"meal_takeaway, restaurant, point_of_interest, food, establishment","1096 Claussen Rd, Augusta, GA 30907, USA",Richmond County,Augusta,GA,30907,33.5219436,-82.0333643,25,15277.276,49.08887
Waffle House,"meal_takeaway, restaurant, point_of_interest, food, establishment","246 Davis Rd, Augusta, GA 30907, USA",Richmond County,Augusta,GA,30907,33.5006875,-82.0819576,33,19854.43,64.79731
Waffle House,"meal_takeaway, restaurant, point_of_interest, food, establishment","1202 George C Wilson Dr, Augusta, GA 30909, USA",Richmond County,Augusta,GA,30909,33.4826316,-82.0876295,22,12690.245,43.198208
Waffle House,"meal_takeaway, restaurant, point_of_interest, food, establishment","1171 W Martintown Rd, North Augusta, SC 29841, USA",Aiken County,North Augusta,SC,29841,33.5364644,-81.98810019999999,31,16455.74,60.8702
Waffle House,"meal_takeaway, restaurant, point_of_interest, food, establishment","3134 Peach Orchard Rd, Augusta, GA 30906, USA",Richmond County,Augusta,GA,30906,33.4095636,-82.0266157,,,
Waffle House,"meal_takeaway, restaurant, point_of_interest, food, establishment","321 Georgia Ave, North Augusta, SC 29841, USA",Aiken County,North Augusta,SC,29841,33.4918163,-81.9714944,29,16530.295,56.943092
Waffle House,"meal_takeaway, restaurant, point_of_interest, food, establishment","2057 Gordon Hwy, Augusta, GA 30909, USA",Richmond County,Augusta,GA,30909,33.4520018,-82.06314610000001,25,15505.55,49.08887
Waffle House,"meal_takeaway, restaurant, point_of_interest, food, establishment","1629 Gordon Hwy, Augusta, GA 30906, USA",Richmond County,Augusta,GA,30906,33.4395324,-82.0159323,30,18303.004,58.906647
Waffle House,"meal_takeaway, restaurant, point_of_interest, food, establishment","1627 Walton Way, Augusta, GA 30904, USA",Richmond County,Augusta,GA,30904,33.4758488,-81.99374010000001,38,22014.82,74.61508
Waffle House,"meal_takeaway, restaurant, point_of_interest, food, establishment","6751 Veterans Pkwy, Columbus, GA 31909, USA",Muscogee County,Columbus,GA,31909,32.5424025,-84.9546776,42,25700.484,82.46931
Waffle House,"meal_takeaway, restaurant, point_of_interest, food, establishment","1326 Veterans Pkwy, Columbus, GA 31901, USA",Muscogee County,Columbus,GA,31901,32.4716527,-84.98709690000001,41,23594.412,80.50575
Waffle House,"meal_takeaway, restaurant, point_of_interest, food, establishment","7380 Blackmon Rd, Columbus, GA 31909, USA",Muscogee County,Columbus,GA,31909,32.551169,-84.89577949999999,17,10676.805,33.380432
Waffle House,"meal_takeaway, restaurant, point_of_interest, food, establishment","5701 Milgen Rd, Columbus, GA 31907, USA",Muscogee County,Columbus,GA,31907,32.5226378,-84.88874059999999,23,13583.576,45.161762
Waffle House,"meal_takeaway, restaurant, point_of_interest, food, establishment","3898 US-80, Phenix City, AL 36867, USA",Russell County,Phenix City,AL,36867,32.4704445,-85.08987069999999,36,20650.95,70.68797
Waffle House,"meal_takeaway, restaurant, point_of_interest, food, establishment","3455 Macon Rd, Columbus, GA 31907, USA",Muscogee County,Columbus,GA,31907,32.4842642,-84.9384288,1421,876120.06,2790.2114
Waffle House,"meal_takeaway, restaurant, point_of_interest, food, establishment","1141 US-280, Phenix City, AL 36867, USA",Russell County,Phenix City,AL,36867,32.4697399,-85.0297975,33,19889.951,64.79731
Waffle House,"meal_takeaway, restaurant, point_of_interest, food, establishment","4301 Victory Dr, Columbus, GA 31903, USA",Muscogee County,Columbus,GA,31903,32.4064101,-84.93657309999999,28,16271.462,54.979538
Waffle House,"meal_takeaway, restaurant, point_of_interest, food, establishment","3603 HIGHWAY 280/431 NORTH, Phenix City, AL 36867, USA",Russell County,Phenix City,AL,36867,32.4951741,-85.04212129999999,114,69094.19,223.84526
Waffle House,"meal_takeaway, restaurant, point_of_interest, food, establishment","1646 A Bradley Park Dr, Columbus, GA 31904, USA",Muscogee County,Columbus,GA,31904,32.5321356,-84.96597229999999,36,22025.67,70.68797
Waffle House,"meal_takeaway, restaurant, point_of_interest, food, establishment","2727 Manchester Expy, Columbus, GA 31904, USA",Muscogee County,Columbus,GA,31904,32.5071472,-84.9525014,31,19350.8,60.8702
Waffle House,"meal_takeaway, restaurant, point_of_interest, food, establishment","4005 Buena Vista Rd, Columbus, GA 31907, USA",Muscogee County,Columbus,GA,31907,32.463491,-84.9263653,4,2377.1538,7.8542194
Waffle House,"meal_takeaway, restaurant, point_of_interest, food, establishment","3509 Retail Dr, Phenix City, AL 36869, USA",Russell County,Phenix City,AL,36869,32.4246294,-85.03643869999999,32,19318.922,62.833755
Waffle House,"meal_takeaway, restaurant, point_of_interest, food, establishment","3707 Summerville Rd, Phenix City, AL 36867, USA",Russell County,Phenix City,AL,36867,32.4970928,-85.0161139,24,14705.949,47.125317
Waffle House,"meal_takeaway, restaurant, point_of_interest, food, establishment","7301 Abercorn St, Savannah, GA 31406, USA",Chatham County,Savannah,GA,31406,32.0098687,-81.1151086,29,18427.844,56.943092
Waffle House,"meal_takeaway, restaurant, point_of_interest, food, establishment","10002 Abercorn St, Savannah, GA 31406, USA",Chatham County,Savannah,GA,31406,31.9922685,-81.1291141,37,23328.246,72.65153
Waffle House,"meal_takeaway, restaurant, point_of_interest, food, establishment","3711 Ogeechee Rd, Savannah, GA 31405, USA",Chatham County,Savannah,GA,31405,32.0523835,-81.1464326,36,20084.242,70.68797
Waffle House,"meal_takeaway, restaurant, point_of_interest, food, establishment","1930 E President St, Savannah, GA 31404, USA",Chatham County,Savannah,GA,31404,32.0701919,-81.05646290000001,20,11882.016,39.271095
Waffle House,"meal_takeaway, restaurant, point_of_interest, food, establishment","4310 Augusta Rd, Garden City, GA 31408, USA",Chatham County,Garden City,GA,31408,32.1046912,-81.1504561,113,70556.96,221.8817
Omelette House,"restaurant, point_of_interest, food, establishment","7127 Hodgson Memorial Dr, Savannah, GA 31406, USA",Chatham County,Savannah,GA,31406,32.0065505,-81.1105901,371,224502.25,728.4789
The Original Pancake House,"restaurant, point_of_interest, food, store, establishment","7201 Hodgson Memorial Dr B, Savannah, GA 31406, USA",Chatham County,Savannah,GA,31406,32.004833,-81.111269,563,350278.28,1105.4814
The Palace Diner on Abercorn,"restaurant, point_of_interest, food, establishment","7202 Abercorn St, Savannah, GA 31406, USA",Chatham County,Savannah,GA,31406,32.01076640000001,-81.1138325,35,21968.637,68.72442
Waffle House,"meal_takeaway, restaurant, food, point_of_interest, establishment","1825 Barnett Shoals Rd, Athens, GA 30605, USA",Clarke County,Athens,GA,30605,33.926397,-83.33999570000002,192,118922.73,377.00253
Waffle House,"meal_takeaway, restaurant, food, point_of_interest, establishment","2034 S Milledge Ave, Athens, GA 30605, USA",Clarke County,Athens,GA,30605,33.9230845,-83.3792623,55,34274.938,107.995514
Waffle House,"meal_takeaway, restaurant, food, point_of_interest, establishment","1310 Oconee St, Athens, GA 30605, USA",Clarke County,Athens,GA,30605,33.9476799,-83.3585228,48,30167.635,94.25063
Waffle House,"meal_takeaway, restaurant, food, point_of_interest, establishment","8000 Macon Hwy, Athens, GA 30606, USA",Oconee County,Athens,GA,30606,33.8898012,-83.4126311,46,28371.936,90.323524
Waffle House,"meal_takeaway, restaurant, food, point_of_interest, establishment","461 Calhoun Dr, Athens, GA 30601, USA",Clarke County,Athens,GA,30601,33.9865007,-83.34500109999999,47,29490.828,92.28708
Waffle House,"meal_takeaway, restaurant, food, point_of_interest, establishment","1710 Epps Bridge Pkwy, Athens, GA 30606, USA",Oconee County,Athens,GA,30606,33.9138394,-83.44761869999999,60,37911.113,117.81329
Waffle House,"meal_takeaway, restaurant, food, point_of_interest, establishment","140 W Clayton St, Athens, GA 30601, USA",Clarke County,Athens,GA,30601,33.958209,-83.3776602,129,70036.66,253.29858
Waffle House,"restaurant, food, point_of_interest, establishment","9008 US-29, Hull, GA 30646, USA",Madison County,Hull,GA,30646,34.03161559999999,-83.3164906,200,111651.08,392.71097
Waffle House Museum,"museum, point_of_interest, establishment","2719 E College Ave, Decatur, GA 30030, USA",DeKalb County,Decatur,GA,30030,33.7745551,-84.2784502,107,65131.24,210.10037
Waffle House,"meal_takeaway, restaurant, point_of_interest, food, establishment","3335 S Cobb Dr SE, Smyrna, GA 30080, USA",Cobb County,Smyrna,GA,30080,33.872575,-84.5288633,21,11752.028,41.234653
Waffle House,"meal_takeaway, restaurant, point_of_interest, food, establishment","2316 S Cobb Dr SE, Smyrna, GA 30080, USA",Cobb County,Smyrna,GA,30080,33.8961083,-84.5397862,31,16927.143,60.8702
Waffle House,"meal_takeaway, restaurant, food, point_of_interest, establishment","621 Johnson Ferry Rd, Marietta, GA 30068, USA",Cobb County,Marietta,GA,30068,33.964011,-84.4121322,29,16977.69,56.943092
Waffle House,"meal_takeaway, restaurant, food, point_of_interest, establishment","550 N Greenbriar Pkwy, Marietta, GA 30062, USA",Cobb County,Marietta,GA,30062,33.9637106,-84.4942968,25,14947.654,49.08887
Waffle House,"meal_takeaway, restaurant, food, point_of_interest, establishment","1176 Roswell Rd, Marietta, GA 30062, USA",Cobb County,Marietta,GA,30062,33.9505183,-84.5175594,29,15603.693,56.943092
Waffle House,"meal_takeaway, restaurant, food, point_of_interest, establishment","650 Whitlock Ave SW, Marietta, GA 30064, USA",Cobb County,Marietta,GA,30064,33.9522161,-84.5712071,34,18770.447,66.760864
Waffle House,"meal_takeaway, restaurant, food, point_of_interest, establishment","1398 Austell Rd SE, Marietta, GA 30008, USA",Cobb County,Marietta,GA,30008,33.9194187,-84.54872069999999,41,22965.092,80.50575
Waffle House,"meal_takeaway, restaurant, food, point_of_interest, establishment","1410 Dura Dr SW, Marietta, GA 30008, USA",Cobb County,Marietta,GA,30008,33.9185523,-84.5819346,22,12148.303,43.198208
Waffle House,"meal_takeaway, restaurant, point_of_interest, food, establishment","1811 Williams Dr, Marietta, GA 30066, USA",Cobb County,Marietta,GA,30066,33.9984399,-84.5296527,26,14673.61,51.052425
Waffle House,"meal_takeaway, restaurant, point_of_interest, food, establishment","170 Ernest W Barrett Pkwy NW, Marietta, GA 30066, USA",Cobb County,Marietta,GA,30066,34.014525,-84.5567176,41,22644.793,80.50575
Waffle House,"meal_takeaway, restaurant, food, point_of_interest, establishment","2720 Sandy Plains Rd, Marietta, GA 30066, USA",Cobb County,Marietta,GA,30066,34.0166452,-84.4921375,12,7375.1563,23.562658
Waffle House,"meal_takeaway, restaurant, food, point_of_interest, establishment","2164 Cobb Pkwy NW, Kennesaw, GA 30152, USA",Cobb County,Kennesaw,GA,30152,34.0053318,-84.60283380000001,33,19867.625,64.79731
Waffle House,"meal_takeaway, restaurant, food, point_of_interest, establishment","3635 Austell Rd SW, Marietta, GA 30008, USA",Cobb County,Marietta,GA,30008,33.86486319999999,-84.59397779999999,157,93065.56,308.2781
Waffle House,"meal_takeaway, restaurant, point_of_interest, food, establishment","8765 Tara Blvd, Jonesboro, GA 30236, USA",Clayton County,Jonesboro,GA,30236,33.5158118,-84.3635596,38,19759.975,74.61508
Waffle House,"meal_takeaway, restaurant, food, point_of_interest, establishment","611 Hwy 138 SE, Stockbridge, GA 30281, USA",Henry County,Stockbridge,GA,30281,33.5485309,-84.27568680000002,35,21112.266,68.72442
Waffle House,"meal_takeaway, restaurant, food, point_of_interest, establishment","5252 N Henry Blvd, Stockbridge, GA 30281, USA",Henry County,Stockbridge,GA,30281,33.5476083,-84.2506088,31,18923.064,60.8702
Waffle House,"meal_takeaway, restaurant, food, point_of_interest, establishment","201 Fairview Rd, Ellenwood, GA 30294, USA",Henry County,Ellenwood,GA,30294,33.6190534,-84.2421828,26,13473.954,51.052425
Waffle House,"meal_takeaway, restaurant, food, point_of_interest, establishment","6542 GA-42, Rex, GA 30273, USA",Clayton County,Rex,GA,30273,33.57858179999999,-84.2751133,26,14590.728,51.052425
Waffle House,"meal_takeaway, restaurant, food, point_of_interest, establishment","2842 Panola Rd, Lithonia, GA 30058, USA",DeKalb County,Lithonia,GA,30058,33.70447,-84.1690107,36,19912.838,70.68797
Waffle House,"meal_takeaway, restaurant, food, point_of_interest, establishment","2255 Panola Rd, Lithonia, GA 30058, USA",DeKalb County,Lithonia,GA,30058,33.7239613,-84.1679341,48,28602.443,94.25063
Waffle House,"meal_takeaway, restaurant, food, point_of_interest, establishment","2918 Woodrow Dr, Stonecrest, GA 30038, USA",DeKalb County,Stonecrest,GA,30038,33.6991236,-84.11769439999999,25,14375.432,49.08887
Waffle House,"meal_takeaway, restaurant, point_of_interest, food, establishment","5245 Stone Mountain Hwy, Stone Mountain, GA 30087, USA",Gwinnett County,Stone Mountain,GA,30087,33.8237876,-84.11162999999999,59,32610.88,115.84974
Waffle House,"meal_takeaway, restaurant, food, point_of_interest, establishment","2661 Powder Springs Rd, Marietta, GA 30064, USA",Cobb County,Marietta,GA,30064,33.8672254,-84.631062,33,19932.957,64.79731
Waffle House,"meal_takeaway, restaurant, food, point_of_interest, establishment","1400 Lee Rd, Lithia Springs, GA 30122, USA",Douglas County,Lithia Springs,GA,30122,33.7670256,-84.6509691,115,67556.42,225.8088
Waffle House,"meal_takeaway, restaurant, food, point_of_interest, establishment","4097 Marietta St, Powder Springs, GA 30127, USA",Cobb County,Powder Springs,GA,30127,33.8584428,-84.6740398,35,20716.057,68.72442
Waffle House,"meal_takeaway, restaurant, food, point_of_interest, establishment","4030 Chapel Hill Rd, Douglasville, GA 30135, USA",Douglas County,Douglasville,GA,30135,33.6969339,-84.7156017,359,212136.63,704.9162
Waffle House,"meal_takeaway, restaurant, food, point_of_interest, establishment","3255 Florence Rd, Powder Springs, GA 30127, USA",Cobb County,Powder Springs,GA,30127,33.8752033,-84.7026245,39,23110.197,76.578636
Waffle House,"meal_takeaway, restaurant, food, point_of_interest, establishment","2111 Fairburn Rd, Douglasville, GA 30135, USA",Douglas County,Douglasville,GA,30135,33.7473148,-84.7014319,24,14482.577,47.125317
Waffle House,"meal_takeaway, restaurant, point_of_interest, food, establishment","6026 Bethelview Rd, Cumming, GA 30040, USA",Forsyth County,Cumming,GA,30040,34.1631845,-84.1762061,40,24213.742,78.54219
Waffle House,"meal_takeaway, restaurant, point_of_interest, food, establishment","903 Buford Rd, Cumming, GA 30041, USA",Forsyth County,Cumming,GA,30041,34.1791638,-84.1332541,27,14919.856,53.01598
