Name,Type,Address,County,City,State,Zip_code,Latitude,Longitude
Waffle House,"meal_takeaway, restaurant, food, point_of_interest, establishment","135 Andrew Young International Blvd NW, Atlanta, GA 30303, USA",Fulton County,Atlanta,GA,30303,33.7599121,-84.3917791
Waffle House,"meal_takeaway, restaurant, food, point_of_interest, establishment","1099 Northside Dr NW, Atlanta, GA 30318, USA",Fulton County,Atlanta,GA,30318,33.78469870000001,-84.40707139999999
Waffle House,"meal_takeaway, restaurant, food, point_of_interest, establishment","1700 Howell Mill Rd, Atlanta, GA 30318, USA",Fulton County,Atlanta,GA,30318,33.8007561,-84.4162202
Waffle House,"meal_takeaway, restaurant, food, point_of_interest, establishment","66 5th St NW, Atlanta, GA 30332, USA",Fulton County,Atlanta,GA,30332,33.7766569,-84.38946240000001
Waffle House,"meal_takeaway, restaurant, food, point_of_interest, establishment","2581 Piedmont Rd NE, Atlanta, GA 30324, USA",Fulton County,Atlanta,GA,30324,33.8256085,-84.3659725
Waffle House,"meal_takeaway, restaurant, food, point_of_interest, establishment","760 Dekalb Industrial Way, Decatur, GA 30033, USA",DeKalb County,Decatur,GA,30033,33.7986062,-84.2804963
Waffle House,"meal_takeaway, restaurant, food, point_of_interest, establishment","1674 Washington Rd, East Point, GA 30344, USA",Fulton County,East Point,GA,30344,33.6752749,-84.4436589
Waffle House,"meal_takeaway, restaurant, food, point_of_interest, establishment","1227 Virginia Ave, East Point, GA 30344, USA",Fulton County,East Point,GA,30344,33.6593232,-84.4292237
Waffle House,"meal_takeaway, restaurant, food, point_of_interest, establishment","3016 Piedmont Rd, Atlanta, GA 30305, USA",Fulton County,Atlanta,GA,30305,33.8373795,-84.36860089999999
Waffle House,"meal_takeaway, restaurant, food, point_of_interest, establishment","100 Piedmont Ave SE, Atlanta, GA 30303, USA",Fulton County,Atlanta,GA,30303,33.7510338,-84.385576
Waffle House,"meal_takeaway, restaurant, food, point_of_interest, establishment","860 Glenwood Ave SE, Atlanta, GA 30316, USA",Fulton County,Atlanta,GA,30316,33.7407582,-84.36184109999999
Waffle House,"meal_takeaway, restaurant, food, point_of_interest, establishment","2264 Cheshire Bridge Rd NE, Atlanta, GA 30324, USA",Fulton County,Atlanta,GA,30324,33.8169549,-84.35259289999999
Waffle House,"meal_takeaway, restaurant, food, point_of_interest, establishment","1425 Virginia Ave, College Park, GA 30337, USA",Fulton County,College Park,GA,30337,33.6595264,-84.4358105
Waffle House,"meal_takeaway, restaurant, food, point_of_interest, establishment","839 Virginia Ave, Hapeville, GA 30354, USA",Fulton County,Hapeville,GA,30354,33.6592181,-84.41673469999999
Waffle House,"meal_takeaway, restaurant, food, point_of_interest, establishment","2025 Bolton Rd NW, Atlanta, GA 30318, USA",Fulton County,Atlanta,GA,30318,33.8107196,-84.4753796
Waffle House,"meal_takeaway, restaurant, food, point_of_interest, establishment","2914 Memorial Dr SE, Atlanta, GA 30317, USA",DeKalb County,Atlanta,GA,30317,33.7473669,-84.29117870000002
Waffle House,"meal_takeaway, restaurant, food, point_of_interest, establishment","2812 Buford Hwy NE, Atlanta, GA 30329, USA",DeKalb County,Atlanta,GA,30329,33.8309515,-84.3439566
Waffle House,"meal_takeaway, restaurant, food, point_of_interest, establishment","2886 Clairmont Rd, Atlanta, GA 30329, USA",DeKalb County,Atlanta,GA,30329,33.8411294,-84.31404239999999
Waffle House,"meal_takeaway, restaurant, point_of_interest, food, establishment","2642 Windy Hill Rd SE, Marietta, GA 30067, USA",Cobb County,Marietta,GA,30067,33.9005659,-84.47720679999999
Waffle House,"meal_takeaway, restaurant, point_of_interest, food, establishment","4532 Chamblee Dunwoody Rd, Atlanta, GA 30338, USA",DeKalb County,Atlanta,GA,30338,33.9236119,-84.3151888
Waffle House,"meal_takeaway, restaurant, point_of_interest, food, establishment","2805 Delk Rd, Marietta, GA 30067, USA",Cobb County,Marietta,GA,30067,33.9244396,-84.4699918
Waffle House,"meal_takeaway, restaurant, point_of_interest, food, establishment","5071 Peachtree Industrial Blvd, Chamblee, GA 30341, USA",DeKalb County,Chamblee,GA,30341,33.8879772,-84.3133756
Waffle House,"meal_takeaway, restaurant, point_of_interest, food, establishment","3735 Roswell Rd, Atlanta, GA 30342, USA",Fulton County,Atlanta,GA,30342,33.8570616,-84.3817412
Waffle House,"meal_takeaway, restaurant, point_of_interest, food, establishment","2758 Cobb Pkwy SE, Atlanta, GA 30339, USA",Cobb County,Atlanta,GA,30339,33.885114,-84.4717546
Waffle House,"meal_takeaway, restaurant, point_of_interest, food, establishment","6445 Roswell Rd, Sandy Springs, GA 30328, USA",Fulton County,Sandy Springs,GA,30328,33.9308491,-84.3792776
Waffle House,"meal_takeaway, restaurant, point_of_interest, food, establishment","920 Cobb Pkwy SE, Marietta, GA 30060, USA",Cobb County,Marietta,GA,30060,33.9296508,-84.5097055
Waffle House,"meal_takeaway, restaurant, point_of_interest, food, establishment","4458 Atlanta Rd, Smyrna, GA 30080, USA",Cobb County,Smyrna,GA,30080,33.84481,-84.49083999999999
Waffle House,"meal_takeaway, restaurant, point_of_interest, food, establishment","5565 Northside Dr NW, Atlanta, GA 30327, USA",Fulton County,Atlanta,GA,30327,33.9058722,-84.4309497
Waffle House,"meal_takeaway, restaurant, point_of_interest, food, establishment","4065 Peachtree Rd, Atlanta, GA 30319, USA",DeKalb County,Atlanta,GA,30319,33.8610705,-84.33907980000001
Waffle House,"meal_takeaway, restaurant, point_of_interest, food, establishment","4852 Old National Hwy, College Park, GA 30337, USA",Fulton County,College Park,GA,30337,33.6232024,-84.47388629999999
Waffle House,"meal_takeaway, restaurant, point_of_interest, food, establishment","4995 Old National Hwy, College Park, GA 30349, USA",Fulton County,College Park,GA,30349,33.6190534,-84.47368139999999
Waffle House,"meal_takeaway, restaurant, point_of_interest, food, establishment","5480 Riverdale Rd, College Park, GA 30349, USA",Clayton County,College Park,GA,30349,33.6058134,-84.43488119999999
Waffle House,"meal_takeaway, restaurant, point_of_interest, food, establishment","2735 Forest Pkwy, Ellenwood, GA 30294, USA",Clayton County,Ellenwood,GA,30294,33.6119895,-84.3004624
Waffle House,"meal_takeaway, restaurant, point_of_interest, food, establishment","109 Forest Pkwy, Forest Park, GA 30297, USA",Clayton County,Forest Park,GA,30297,33.6185529,-84.386594
Waffle House,"meal_takeaway, restaurant, point_of_interest, food, establishment","5195 Jonesboro Rd, Lake City, GA 30260, USA",Clayton County,Lake City,GA,30260,33.6129259,-84.3491965
Waffle House,"meal_takeaway, restaurant, point_of_interest, food, establishment","3036 Anvilblock Rd, Ellenwood, GA 30294, USA",Clayton County,Ellenwood,GA,30294,33.6341826,-84.28922349999999
Waffle House,"meal_takeaway, restaurant, food, point_of_interest, establishment","3916 Flat Shoals Pkwy, Decatur, GA 30034, USA",DeKalb County,Decatur,GA,30034,33.6943529,-84.26122400000001
Waffle House,"meal_takeaway, restaurant, food, point_of_interest, establishment","1194 Columbia Dr, Decatur, GA 30032, USA",DeKalb County,Decatur,GA,30032,33.7543474,-84.2664824
Waffle House,"meal_takeaway, restaurant, food, point_of_interest, establishment","2548 Wesley Chapel Rd, Decatur, GA 30035, USA",DeKalb County,Decatur,GA,30035,33.713935,-84.21583969999999
Waffle House,"meal_takeaway, restaurant, food, point_of_interest, establishment","4740 Flat Shoals Pkwy, Decatur, GA 30034, USA",DeKalb County,Decatur,GA,30034,33.6833081,-84.23296719999999
Waffle House,"meal_takeaway, restaurant, food, point_of_interest, establishment","4300 Covington Hwy, Decatur, GA 30035, USA",DeKalb County,Decatur,GA,30035,33.7506001,-84.2275895
Waffle House,"meal_takeaway, restaurant, food, point_of_interest, establishment","2963 Lawrenceville Hwy, Tucker, GA 30084, USA",DeKalb County,Tucker,GA,30084,33.8286068,-84.2493746
Waffle House,"meal_takeaway, restaurant, food, point_of_interest, establishment","1856 Mountain Industrial Blvd, Tucker, GA 30084, USA",DeKalb County,Tucker,GA,30084,33.8378251,-84.2014165
Waffle House,"meal_takeaway, restaurant, food, point_of_interest, establishment","4737 Redan Rd, Stone Mountain, GA 30088, USA",DeKalb County,Stone Mountain,GA,30088,33.7617539,-84.19793039999999
Waffle House,"meal_takeaway, restaurant, point_of_interest, food, establishment","5970 Memorial Dr, Stone Mountain, GA 30083, USA",DeKalb County,Stone Mountain,GA,30083,33.8021614,-84.1948353
Waffle House,"meal_takeaway, restaurant, point_of_interest, food, establishment","2850 E College Ave, Decatur, GA 30030, USA",DeKalb County,Decatur,GA,30030,33.7755466,-84.2737957
Waffle House,"meal_takeaway, restaurant, food, point_of_interest, establishment","5602 Mableton Pkwy SW, Mableton, GA 30126, USA",Cobb County,Mableton,GA,30126,33.8175799,-84.57628059999999
Waffle House,"meal_takeaway, restaurant, food, point_of_interest, establishment","6035 Bakers Ferry Rd, Atlanta, GA 30336, USA",Fulton County,Atlanta,GA,30336,33.7294539,-84.5729245
Waffle House,"meal_takeaway, restaurant, food, point_of_interest, establishment","613 Thornton Rd, Lithia Springs, GA 30122, USA",Douglas County,Lithia Springs,GA,30122,33.7880415,-84.62163629999999
Waffle House,"meal_takeaway, restaurant, food, point_of_interest, establishment","1395 Highlands Ridge Rd SE, Smyrna, GA 30082, USA",Cobb County,Smyrna,GA,30082,33.840534,-84.5193341
Waffle House,"meal_takeaway, restaurant, food, point_of_interest, establishment","908 Thornton Rd, Lithia Springs, GA 30122, USA",Douglas County,Lithia Springs,GA,30122,33.7796743,-84.606597
Waffle House,"meal_takeaway, restaurant, food, point_of_interest, establishment","1450 Veterans Memorial Hwy SE, Mableton, GA 30126, USA",Cobb County,Mableton,GA,30126,33.7985542,-84.51281159999999
Waffle House,"meal_takeaway, restaurant, food, point_of_interest, establishment","1515 McFarland Pkwy, Alpharetta, GA 30005, USA",Forsyth County,Alpharetta,GA,30005,34.1109225,-84.2196591
Waffle House,"meal_takeaway, restaurant, food, point_of_interest, establishment","8604 Roswell Rd, Sandy Springs, GA 30350, USA",Fulton County,Sandy Springs,GA,30350,33.9896493,-84.3521305
Waffle House,"meal_takeaway, restaurant, food, point_of_interest, establishment","1470 Holcomb Bridge Rd, Roswell, GA 30076, USA",Fulton County,Roswell,GA,30076,34.0206258,-84.318066
Waffle House,"meal_takeaway, restaurant, food, point_of_interest, establishment","3319 Old Milton Pkwy, Alpharetta, GA 30005, USA",Fulton County,Alpharetta,GA,30005,34.0684062,-84.26808799999999
Waffle House,"meal_takeaway, restaurant, food, point_of_interest, establishment","2850 Holcomb Bridge Rd, Alpharetta, GA 30022, USA",Fulton County,Alpharetta,GA,30022,33.991171,-84.278446
Waffle House,"meal_takeaway, restaurant, food, point_of_interest, establishment","5365 Peachtree Industrial Blvd, Norcross, GA 30092, USA",Gwinnett County,Norcross,GA,30092,33.96141790000001,-84.2093437
Waffle House,"meal_takeaway, restaurant, food, point_of_interest, establishment","12370 A, Arnold Mill Rd, Alpharetta, GA 30004, USA",Fulton County,Alpharetta,GA,30004,34.0829408,-84.3583579
Waffle House,"meal_takeaway, restaurant, food, point_of_interest, establishment","2940 Mansell Rd, Alpharetta, GA 30022, USA",Fulton County,Alpharetta,GA,30022,34.0379115,-84.2978811
Waffle House,"meal_takeaway, restaurant, food, point_of_interest, establishment","10792 Jones Bridge Rd, Johns Creek, GA 30022, USA",Fulton County,Johns Creek,GA,30022,34.045555,-84.22460679999999
Waffle House,"meal_takeaway, restaurant, food, point_of_interest, establishment","250 Northridge Rd, Sandy Springs, GA 30350, USA",Fulton County,Sandy Springs,GA,30350,33.9820487,-84.3491727
Waffle House,"meal_takeaway, restaurant, food, point_of_interest, establishment","571 S Main St, Alpharetta, GA 30009, USA",Fulton County,Alpharetta,GA,30009,34.0665605,-84.3098984
Waffle House,"meal_takeaway, restaurant, food, point_of_interest, establishment","9650 Medlock Bridge Rd, Johns Creek, GA 30097, USA",Fulton County,Johns Creek,GA,30097,34.0165331,-84.19113329999999
Waffle House,"meal_takeaway, restaurant, point_of_interest, food, establishment","1586 Indian Trail Lilburn Rd NW, Norcross, GA 30093, USA",Gwinnett County,Norcross,GA,30093,33.9219957,-84.1706245
Waffle House,"meal_takeaway, restaurant, point_of_interest, food, establishment","2816 Chamblee Tucker Rd, Atlanta, GA 30341, USA",DeKalb County,Atlanta,GA,30341,33.8802741,-84.27411190000001
Waffle House,"meal_takeaway, restaurant, point_of_interest, food, establishment","5565 Buford Hwy, Norcross, GA 30071, USA",Gwinnett County,Norcross,GA,30071,33.9437706,-84.2058563
Waffle House,"meal_takeaway, restaurant, point_of_interest, food, establishment","4274 Lavista Rd, Tucker, GA 30084, USA",DeKalb County,Tucker,GA,30084,33.8478118,-84.2441994
Waffle House,"meal_takeaway, restaurant, point_of_interest, food, establishment","5990 Lawrenceville Hwy, Tucker, GA 30084, USA",Gwinnett County,Tucker,GA,30084,33.8715221,-84.1747302
Waffle House,"meal_takeaway, restaurant, point_of_interest, food, establishment","7044 Jimmy Carter Blvd, Norcross, GA 30092, USA",Gwinnett County,Norcross,GA,30092,33.9460609,-84.2412774
Waffle House,"meal_takeaway, restaurant, point_of_interest, food, establishment","4375 Tilly Mill Rd, Doraville, GA 30360, USA",DeKalb County,Doraville,GA,30360,33.9227532,-84.2806506
Waffle House,"meal_takeaway, restaurant, point_of_interest, food, establishment","6079 Goshen Springs Rd, Norcross, GA 30071, USA",Gwinnett County,Norcross,GA,30071,33.91584150000001,-84.2079317
Waffle House,"meal_takeaway, restaurant, point_of_interest, food, establishment","5598 Buford Hwy NE, Doraville, GA 30340, USA",DeKalb County,Doraville,GA,30340,33.9044922,-84.2729693
Waffle House,"meal_takeaway, restaurant, point_of_interest, food, establishment","3180 Tucker Norcross Rd, Tucker, GA 30084, USA",DeKalb County,Tucker,GA,30084,33.8823498,-84.2201541
Waffle House Corporate Offices,"restaurant, point_of_interest, food, establishment","5986 Financial Dr NW, Norcross, GA 30071, USA",Gwinnett County,Norcross,GA,30071,33.9186971,-84.2062162
Waffle House,"meal_takeaway, restaurant, food, point_of_interest, establishment","6375 Jonesboro Rd, Morrow, GA 30260, USA",Clayton County,Morrow,GA,30260,33.5811077,-84.34047369999999
Waffle House,"meal_takeaway, restaurant, food, point_of_interest, establishment","4370 Jonesboro Rd, Union City, GA 30291, USA",Fulton County,Union City,GA,30291,33.5665246,-84.5323413
Waffle House,"meal_takeaway, restaurant, food, point_of_interest, establishment","6544 GA-85, Riverdale, GA 30274, USA",Clayton County,Riverdale,GA,30274,33.5765212,-84.4116652
Waffle House,"meal_takeaway, restaurant, food, point_of_interest, establishment","3800 Flat Shoals Rd, Union City, GA 30291, USA",Fulton County,Union City,GA,30291,33.5853155,-84.5153666
Waffle House,"meal_takeaway, restaurant, food, point_of_interest, establishment","1640 Mt Zion Rd, Morrow, GA 30260, USA",Clayton County,Morrow,GA,30260,33.571744,-84.3361896
Waffle House,"meal_takeaway, restaurant, food, point_of_interest, establishment","6350 Tara Blvd, Jonesboro, GA 30236, USA",Clayton County,Jonesboro,GA,30236,33.5808924,-84.3753
Waffle House,"meal_takeaway, restaurant, food, point_of_interest, establishment","669 GA-138, Riverdale, GA 30274, USA",Clayton County,Riverdale,GA,30274,33.5488149,-84.41219869999999
Waffle House,"meal_takeaway, restaurant, food, point_of_interest, establishment","2130 Mt Zion Pkwy, Morrow, GA 30260, USA",Clayton County,Morrow,GA,30260,33.5625459,-84.3207497
Waffle House,"meal_takeaway, restaurant, point_of_interest, food, establishment","5310 CAMPBELLTON, Fairburn, GA 30213, USA",Fulton County,Fairburn,GA,30213,33.61378,-84.61233519999999
Waffle House,"meal_takeaway, restaurant, point_of_interest, food, establishment","7800 Senoia Rd, Fairburn, GA 30213, USA",Fulton County,Fairburn,GA,30213,33.5442892,-84.5764863
Waffle House,"meal_takeaway, restaurant, point_of_interest, food, establishment","115 Stephens Ct, Tyrone, GA 30290, USA",Fayette County,Tyrone,GA,30290,33.488532,-84.584437
Waffle House,"meal_takeaway, restaurant, food, point_of_interest, establishment","2725 Loganville Hwy SW, Loganville, GA 30052, USA",Gwinnett County,Loganville,GA,30052,33.8804255,-83.938182
Waffle House,"meal_takeaway, restaurant, food, point_of_interest, establishment","484 Indian Trail Lilburn Rd NW, Lilburn, GA 30047, USA",Gwinnett County,Lilburn,GA,30047,33.8966581,-84.1399344
Waffle House,"meal_takeaway, restaurant, food, point_of_interest, establishment","3915 Lawrenceville Hwy, Lilburn, GA 30047, USA",Gwinnett County,Lilburn,GA,30047,33.9064282,-84.1118664
Waffle House,"meal_takeaway, restaurant, food, point_of_interest, establishment","2915 Lawrenceville-Suwanee Rd, Suwanee, GA 30024, USA",Gwinnett County,Suwanee,GA,30024,34.0276901,-84.0453428
Waffle House,"meal_takeaway, restaurant, food, point_of_interest, establishment","1205 Lakes Pkwy, Lawrenceville, GA 30043, USA",Gwinnett County,Lawrenceville,GA,30043,33.9639814,-84.0376209
Waffle House,"meal_takeaway, restaurant, food, point_of_interest, establishment","455 Bethesda School Rd, Lawrenceville, GA 30044, USA",Gwinnett County,Lawrenceville,GA,30044,33.9229622,-84.084448
Waffle House,"meal_takeaway, restaurant, food, point_of_interest, establishment","1255 Scenic Hwy S, Lawrenceville, GA 30045, USA",Gwinnett County,Lawrenceville,GA,30045,33.8999454,-84.0061454
Waffle House,"meal_takeaway, restaurant, food, point_of_interest, establishment","4135 Sugarloaf Pkwy, Lawrenceville, GA 30044, USA",Gwinnett County,Lawrenceville,GA,30044,33.9395294,-84.0343149
Waffle House,"meal_takeaway, restaurant, food, point_of_interest, establishment","1825 Pleasant Hill Rd, Duluth, GA 30096, USA",Gwinnett County,Duluth,GA,30096,33.9499207,-84.1289394
Waffle House,"meal_takeaway, restaurant, food, point_of_interest, establishment","219 Grayson Hwy, Lawrenceville, GA 30046, USA",Gwinnett County,Lawrenceville,GA,30046,33.9462022,-83.9858058
Waffle House,"meal_takeaway, restaurant, food, point_of_interest, establishment","1935 Braselton Hwy, Buford, GA 30519, USA",Gwinnett County,Buford,GA,30519,34.0357143,-83.9532912
Waffle House,"meal_takeaway, restaurant, food, point_of_interest, establishment","926 Pleasant Hill Rd, Lawrenceville, GA 30044, USA",Gwinnett County,Lawrenceville,GA,30044,33.9257478,-84.1139178
Waffle House,"meal_takeaway, restaurant, food, point_of_interest, establishment","3335 Steve Reynolds Blvd, Duluth, GA 30096, USA",Gwinnett County,Duluth,GA,30096,33.9536084,-84.14146749999999
Waffle House,"meal_takeaway, restaurant, food, point_of_interest, establishment","2320 Satellite Blvd, Duluth, GA 30096, USA",Gwinnett County,Duluth,GA,30096,33.976942,-84.092912
Waffle House,"meal_takeaway, restaurant, food, point_of_interest, establishment","932 Buford Dr, Lawrenceville, GA 30043, USA",Gwinnett County,Lawrenceville,GA,30043,33.9884677,-83.984693
Waffle House,"meal_takeaway, restaurant, food, point_of_interest, establishment","2250 Peachtree Industrial Blvd, Duluth, GA 30097, USA",Gwinnett County,Duluth,GA,30097,34.0206979,-84.1227541
Waffle House,"meal_takeaway, restaurant, food, point_of_interest, establishment","1100 Old Peachtree Rd NW, Duluth, GA 30097, USA",Gwinnett County,Duluth,GA,30097,34.0013913,-84.07652689999999
Waffle House,"meal_takeaway, restaurant, point_of_interest, food, establishment","772 Dacula Rd, Dacula, GA 30019, USA",Gwinnett County,Dacula,GA,30019,34.0052404,-83.9134052
Waffle House,"meal_takeaway, restaurant, point_of_interest, food, establishment","1960 Main St E SUITE B, Snellville, GA 30078, USA",Gwinnett County,Snellville,GA,30078,33.8556529,-83.9947408
Waffle House,"meal_takeaway, restaurant, point_of_interest, food, establishment","3871 US-78, Snellville, GA 30039, USA",Gwinnett County,Snellville,GA,30039,33.840214,-84.0651261
Waffle House,"meal_takeaway, restaurant, point_of_interest, food, establishment","4752 US-78, Loganville, GA 30052, USA",Walton County,Loganville,GA,30052,33.8337107,-83.8843488
Waffle House,"meal_takeaway, restaurant, food, point_of_interest, establishment","195 Eagles Landing Pkwy, Stockbridge, GA 30281, USA",Henry County,Stockbridge,GA,30281,33.5178179,-84.19261449999999
Waffle House,"meal_takeaway, restaurant, food, point_of_interest, establishment","1480 Jonesboro Rd, McDonough, GA 30253, USA",Henry County,McDonough,GA,30253,33.4623579,-84.2030724
Waffle House,"meal_takeaway, restaurant, food, point_of_interest, establishment","1000 GA-155 S, McDonough, GA 30253, USA",Henry County,McDonough,GA,30253,33.4090366,-84.16532749999999
Waffle House,"meal_takeaway, restaurant, food, point_of_interest, establishment","1727 Hudson Bridge Rd, Stockbridge, GA 30281, USA",Henry County,Stockbridge,GA,30281,33.5014533,-84.24255
Waffle House,"meal_takeaway, restaurant, food, point_of_interest, establishment","265 Jonesboro Rd, McDonough, GA 30253, USA",Henry County,McDonough,GA,30253,33.4525567,-84.1668868
Waffle House,"meal_takeaway, restaurant, food, point_of_interest, establishment","1305 GA-20, McDonough, GA 30253, USA",Henry County,McDonough,GA,30253,33.4228595,-84.18526709999999
Waffle House,"meal_takeaway, restaurant, food, point_of_interest, establishment","2045 GA-155 N, McDonough, GA 30252, USA",Henry County,McDonough,GA,30252,33.5060439,-84.1421326
Waffle House,"meal_takeaway, restaurant, food, point_of_interest, establishment","105 Country Club Dr, Stockbridge, GA 30281, USA",Henry County,Stockbridge,GA,30281,33.5060971,-84.2277046
Waffle House,"meal_takeaway, restaurant, point_of_interest, food, establishment","4065 Forsyth Rd, Macon, GA 31210, USA",Bibb County,Macon,GA,31210,32.8648384,-83.69161799999999
Waffle House,"meal_takeaway, restaurant, point_of_interest, food, establishment","840 Riverside Dr, Macon, GA 31201, USA",Bibb County,Macon,GA,31201,32.8424299,-83.629452
Waffle House,"meal_takeaway, restaurant, point_of_interest, food, establishment","5440 Bowman Rd, Macon, GA 31210, USA",Bibb County,Macon,GA,31210,32.9261105,-83.73366229999999
Waffle House,"meal_takeaway, restaurant, point_of_interest, food, establishment","1330 Gray Hwy, Macon, GA 31211, USA",Bibb County,Macon,GA,31211,32.8613566,-83.6145032
Waffle House,"meal_takeaway, restaurant, point_of_interest, food, establishment","4285 Pio Nono Ave, Macon, GA 31206, USA",Bibb County,Macon,GA,31206,32.7859851,-83.6677727
Waffle House,"meal_takeaway, restaurant, point_of_interest, food, establishment","4731 Chambers Rd, Macon, GA 31206, USA",Bibb County,Macon,GA,31206,32.8085859,-83.72329649999999
Waffle House,"meal_takeaway, restaurant, point_of_interest, food, establishment","5146 Mercer University Dr, Macon, GA 31210, USA",Bibb County,Macon,GA,31210,32.8321919,-83.7309791
Waffle House,"meal_takeaway, restaurant, point_of_interest, food, establishment","3907 Arkwright Rd, Macon, GA 31210, USA",Bibb County,Macon,GA,31210,32.906,-83.6866651
Waffle House,"meal_takeaway, restaurant, point_of_interest, food, establishment","2644 Riverside Dr, Macon, GA 31204, USA",Bibb County,Macon,GA,31204,32.8741295,-83.66379189999999
Waffle House,"meal_takeaway, restaurant, point_of_interest, food, establishment","4475 Ocmulgee E Blvd, Macon, GA 31217, USA",Bibb County,Macon,GA,31217,32.8054701,-83.5694816
Waffle House,"meal_takeaway, restaurant, point_of_interest, food, establishment","3417 Wrightsboro Rd, Augusta, GA 30909, USA",Richmond County,Augusta,GA,30909,33.4685313,-82.0771022
Waffle House,"meal_takeaway, restaurant, point_of_interest, food, establishment","2951 Washington Rd, Augusta, GA 30909, USA",Richmond County,Augusta,GA,30909,33.511982,-82.0400964
Waffle House,"meal_takeaway, restaurant, point_of_interest, food, establishment","3408 Mike Padgett Hwy HY, Augusta, GA 30906, USA",Richmond County,Augusta,GA,30906,33.3993569,-82.00515480000001
Waffle House,"meal_takeaway, restaurant, point_of_interest, food, establishment","3164 Deans Bridge Rd, Augusta, GA 30906, USA",Richmond County,Augusta,GA,30906,33.4218789,-82.0616328
Waffle House,"meal_takeaway, restaurant, point_of_interest, food, establishment","3042 Washington Rd, Augusta, GA 30907, USA",Richmond County,Augusta,GA,30907,33.51253570000001,-82.04918839999999
Waffle House,"meal_takeaway, restaurant, point_of_interest, food, establishment","1096 Claussen Rd, Augusta, GA 30907, USA",Richmond County,Augusta,GA,30907,33.5219436,-82.0333643
Waffle House,"meal_takeaway, restaurant, point_of_interest, food, establishment","246 Davis Rd, Augusta, GA 30907, USA",Richmond County,Augusta,GA,30907,33.5006875,-82.0819576
Waffle House,"meal_takeaway, restaurant, point_of_interest, food, establishment","1202 George C Wilson Dr, Augusta, GA 30909, USA",Richmond County,Augusta,GA,30909,33.4826316,-82.0876295
Waffle House,"meal_takeaway, restaurant, point_of_interest, food, establishment","1171 W Martintown Rd, North Augusta, SC 29841, USA",Aiken County,North Augusta,SC,29841,33.5364644,-81.98810019999999
Waffle House,"meal_takeaway, restaurant, point_of_interest, food, establishment","3134 Peach Orchard Rd, Augusta, GA 30906, USA",Richmond County,Augusta,GA,30906,33.4095636,-82.0266157
Waffle House,"meal_takeaway, restaurant, point_of_interest, food, establishment","321 Georgia Ave, North Augusta, SC 29841, USA",Aiken County,North Augusta,SC,29841,33.4918163,-81.9714944
Waffle House,"meal_takeaway, restaurant, point_of_interest, food, establishment","2057 Gordon Hwy, Augusta, GA 30909, USA",Richmond County,Augusta,GA,30909,33.4520018,-82.06314610000001
Waffle House,"meal_takeaway, restaurant, point_of_interest, food, establishment","1629 Gordon Hwy, Augusta, GA 30906, USA",Richmond County,Augusta,GA,30906,33.4395324,-82.0159323
Waffle House,"meal_takeaway, restaurant, point_of_interest, food, establishment","1627 Walton Way, Augusta, GA 30904, USA",Richmond County,Augusta,GA,30904,33.4758488,-81.99374010000001
Waffle House,"meal_takeaway, restaurant, point_of_interest, food, establishment","6751 Veterans Pkwy, Columbus, GA 31909, USA",Muscogee County,Columbus,GA,31909,32.5424025,-84.9546776
Waffle House,"meal_takeaway, restaurant, point_of_interest, food, establishment","1326 Veterans Pkwy, Columbus, GA 31901, USA",Muscogee County,Columbus,GA,31901,32.4716527,-84.98709690000001
Waffle House,"meal_takeaway, restaurant, point_of_interest, food, establishment","7380 Blackmon Rd, Columbus, GA 31909, USA",Muscogee County,Columbus,GA,31909,32.551169,-84.89577949999999
Waffle House,"meal_takeaway, restaurant, point_of_interest, food, establishment","5701 Milgen Rd, Columbus, GA 31907, USA",Muscogee County,Columbus,GA,31907,32.5226378,-84.88874059999999
Waffle House,"meal_takeaway, restaurant, point_of_interest, food, establishment","3898 US-80, Phenix City, AL 36867, USA",Russell County,Phenix City,AL,36867,32.4704445,-85.08987069999999
Waffle House,"meal_takeaway, restaurant, point_of_interest, food, establishment","3455 Macon Rd, Columbus, GA 31907, USA",Muscogee County,Columbus,GA,31907,32.4842642,-84.9384288
Waffle House,"meal_takeaway, restaurant, point_of_interest, food, establishment","1141 US-280, Phenix City, AL 36867, USA",Russell County,Phenix City,AL,36867,32.4697399,-85.0297975
Waffle House,"meal_takeaway, restaurant, point_of_interest, food, establishment","4301 Victory Dr, Columbus, GA 31903, USA",Muscogee County,Columbus,GA,31903,32.4064101,-84.93657309999999
Waffle House,"meal_takeaway, restaurant, point_of_interest, food, establishment","3603 HIGHWAY 280/431 NORTH, Phenix City, AL 36867, USA",Russell County,Phenix City,AL,36867,32.4951741,-85.04212129999999
Waffle House,"meal_takeaway, restaurant, point_of_interest, food, establishment","1646 A Bradley Park Dr, Columbus, GA 31904, USA",Muscogee County,Columbus,GA,31904,32.5321356,-84.96597229999999
Waffle House,"meal_takeaway, restaurant, point_of_interest, food, establishment","2727 Manchester Expy, Columbus, GA 31904, USA",Muscogee County,Columbus,GA,31904,32.5071472,-84.9525014
Waffle House,"meal_takeaway, restaurant, point_of_interest, food, establishment","4005 Buena Vista Rd, Columbus, GA 31907, USA",Muscogee County,Columbus,GA,31907,32.463491,-84.9263653
Waffle House,"meal_takeaway, restaurant, point_of_interest, food, establishment","3509 Retail Dr, Phenix City, AL 36869, USA",Russell County,Phenix City,AL,36869,32.4246294,-85.03643869999999
Waffle House,"meal_takeaway, restaurant, point_of_interest, food, establishment","3707 Summerville Rd, Phenix City, AL 36867, USA",Russell County,Phenix City,AL,36867,32.4970928,-85.0161139
Waffle House,"meal_takeaway, restaurant, point_of_interest, food, establishment","7301 Abercorn St, Savannah, GA 31406, USA",Chatham County,Savannah,GA,31406,32.0098687,-81.1151086
Waffle House,"meal_takeaway, restaurant, point_of_interest, food, establishment","10002 Abercorn St, Savannah, GA 31406, USA",Chatham County,Savannah,GA,31406,31.9922685,-81.1291141
Waffle House,"meal_takeaway, restaurant, point_of_interest, food, establishment","3711 Ogeechee Rd, Savannah, GA 31405, USA",Chatham County,Savannah,GA,31405,32.0523835,-81.1464326
Waffle House,"meal_takeaway, restaurant, point_of_interest, food, establishment","1930 E President St, Savannah, GA 31404, USA",Chatham County,Savannah,GA,31404,32.0701919,-81.05646290000001
Waffle House,"meal_takeaway, restaurant, point_of_interest, food, establishment","4310 Augusta Rd, Garden City, GA 31408, USA",Chatham County,Garden City,GA,31408,32.1046912,-81.1504561
Omelette House,"restaurant, point_of_interest, food, establishment","7127 Hodgson Memorial Dr, Savannah, GA 31406, USA",Chatham County,Savannah,GA,31406,32.0065505,-81.1105901
The Original Pancake House,"restaurant, point_of_interest, food, store, establishment","7201 Hodgson Memorial Dr B, Savannah, GA 31406, USA",Chatham County,Savannah,GA,31406,32.004833,-81.111269
The Palace Diner on Abercorn,"restaurant, point_of_interest, food, establishment","7202 Abercorn St, Savannah, GA 31406, USA",Chatham County,Savannah,GA,31406,32.01076640000001,-81.1138325
Waffle House,"meal_takeaway, restaurant, food, point_of_interest, establishment","1825 Barnett Shoals Rd, Athens, GA 30605, USA",Clarke County,Athens,GA,30605,33.926397,-83.33999570000002
Waffle House,"meal_takeaway, restaurant, food, point_of_interest, establishment","2034 S Milledge Ave, Athens, GA 30605, USA",Clarke County,Athens,GA,30605,33.9230845,-83.3792623
Waffle House,"meal_takeaway, restaurant, food, point_of_interest, establishment","1310 Oconee St, Athens, GA 30605, USA",Clarke County,Athens,GA,30605,33.9476799,-83.3585228
Waffle House,"meal_takeaway, restaurant, food, point_of_interest, establishment","8000 Macon Hwy, Athens, GA 30606, USA",Oconee County,Athens,GA,30606,33.8898012,-83.4126311
Waffle House,"meal_takeaway, restaurant, food, point_of_interest, establishment","461 Calhoun Dr, Athens, GA 30601, USA",Clarke County,Athens,GA,30601,33.9865007,-83.34500109999999
Waffle House,"meal_takeaway, restaurant, food, point_of_interest, establishment","1710 Epps Bridge Pkwy, Athens, GA 30606, USA",Oconee County,Athens,GA,30606,33.9138394,-83.44761869999999
Waffle House,"meal_takeaway, restaurant, food, point_of_interest, establishment","140 W Clayton St, Athens, GA 30601, USA",Clarke County,Athens,GA,30601,33.958209,-83.3776602
Waffle House,"restaurant, food, point_of_interest, establishment","9008 US-29, Hull, GA 30646, USA",Madison County,Hull,GA,30646,34.03161559999999,-83.3164906
Waffle House Museum,"museum, point_of_interest, establishment","2719 E College Ave, Decatur, GA 30030, USA",DeKalb County,Decatur,GA,30030,33.7745551,-84.2784502
Waffle House,"meal_takeaway, restaurant, point_of_interest, food, establishment","3335 S Cobb Dr SE, Smyrna, GA 30080, USA",Cobb County,Smyrna,GA,30080,33.872575,-84.5288633
Waffle House,"meal_takeaway, restaurant, point_of_interest, food, establishment","2316 S Cobb Dr SE, Smyrna, GA 30080, USA",Cobb County,Smyrna,GA,30080,33.8961083,-84.5397862
Waffle House,"meal_takeaway, restaurant, food, point_of_interest, establishment","621 Johnson Ferry Rd, Marietta, GA 30068, USA",Cobb County,Marietta,GA,30068,33.964011,-84.4121322
Waffle House,"meal_takeaway, restaurant, food, point_of_interest, establishment","550 N Greenbriar Pkwy, Marietta, GA 30062, USA",Cobb County,Marietta,GA,30062,33.9637106,-84.4942968
Waffle House,"meal_takeaway, restaurant, food, point_of_interest, establishment","1176 Roswell Rd, Marietta, GA 30062, USA",Cobb County,Marietta,GA,30062,33.9505183,-84.5175594
Waffle House,"meal_takeaway, restaurant, food, point_of_interest, establishment","650 Whitlock Ave SW, Marietta, GA 30064, USA",Cobb County,Marietta,GA,30064,33.9522161,-84.5712071
Waffle House,"meal_takeaway, restaurant, food, point_of_interest, establishment","1398 Austell Rd SE, Marietta, GA 30008, USA",Cobb County,Marietta,GA,30008,33.9194187,-84.54872069999999
Waffle House,"meal_takeaway, restaurant, food, point_of_interest, establishment","1410 Dura Dr SW, Marietta, GA 30008, USA",Cobb County,Marietta,GA,30008,33.9185523,-84.5819346
Waffle House,"meal_takeaway, restaurant, point_of_interest, food, establishment","1811 Williams Dr, Marietta, GA 30066, USA",Cobb County,Marietta,GA,30066,33.9984399,-84.5296527
Waffle House,"meal_takeaway, restaurant, point_of_interest, food, establishment","170 Ernest W Barrett Pkwy NW, Marietta, GA 30066, USA",Cobb County,Marietta,GA,30066,34.014525,-84.5567176
Waffle House,"meal_takeaway, restaurant, food, point_of_interest, establishment","2720 Sandy Plains Rd, Marietta, GA 30066, USA",Cobb County,Marietta,GA,30066,34.0166452,-84.4921375
Waffle House,"meal_takeaway, restaurant, food, point_of_interest, establishment","2164 Cobb Pkwy NW, Kennesaw, GA 30152, USA",Cobb County,Kennesaw,GA,30152,34.0053318,-84.60283380000001
Waffle House,"meal_takeaway, restaurant, food, point_of_interest, establishment","3635 Austell Rd SW, Marietta, GA 30008, USA",Cobb County,Marietta,GA,30008,33.86486319999999,-84.59397779999999
Waffle House,"meal_takeaway, restaurant, point_of_interest, food, establishment","8765 Tara Blvd, Jonesboro, GA 30236, USA",Clayton County,Jonesboro,GA,30236,33.5158118,-84.3635596
Waffle House,"meal_takeaway, restaurant, food, point_of_interest, establishment","611 Hwy 138 SE, Stockbridge, GA 30281, USA",Henry County,Stockbridge,GA,30281,33.5485309,-84.27568680000002
Waffle House,"meal_takeaway, restaurant, food, point_of_interest, establishment","5252 N Henry Blvd, Stockbridge, GA 30281, USA",Henry County,Stockbridge,GA,30281,33.5476083,-84.2506088
Waffle House,"meal_takeaway, restaurant, food, point_of_interest, establishment","201 Fairview Rd, Ellenwood, GA 30294, USA",Henry County,Ellenwood,GA,30294,33.6190534,-84.2421828
Waffle House,"meal_takeaway, restaurant, food, point_of_interest, establishment","6542 GA-42, Rex, GA 30273, USA",Clayton County,Rex,GA,30273,33.57858179999999,-84.2751133
Waffle House,"meal_takeaway, restaurant, food, point_of_interest, establishment","2842 Panola Rd, Lithonia, GA 30058, USA",DeKalb County,Lithonia,GA,30058,33.70447,-84.1690107
Waffle House,"meal_takeaway, restaurant, food, point_of_interest, establishment","2255 Panola Rd, Lithonia, GA 30058, USA",DeKalb County,Lithonia,GA,30058,33.7239613,-84.1679341
Waffle House,"meal_takeaway, restaurant, food, point_of_interest, establishment","2918 Woodrow Dr, Stonecrest, GA 30038, USA",DeKalb County,Stonecrest,GA,30038,33.6991236,-84.11769439999999
Waffle House,"meal_takeaway, restaurant, point_of_interest, food, establishment","5245 Stone Mountain Hwy, Stone Mountain, GA 30087, USA",Gwinnett County,Stone Mountain,GA,30087,33.8237876,-84.11162999999999
Waffle House,"meal_takeaway, restaurant, food, point_of_interest, establishment","2661 Powder Springs Rd, Marietta, GA 30064, USA",Cobb County,Marietta,GA,30064,33.8672254,-84.631062
Waffle House,"meal_takeaway, restaurant, food, point_of_interest, establishment","1400 Lee Rd, Lithia Springs, GA 30122, USA",Douglas County,Lithia Springs,GA,30122,33.7670256,-84.6509691
Waffle House,"meal_takeaway, restaurant, food, point_of_interest, establishment","4097 Marietta St, Powder Springs, GA 30127, USA",Cobb County,Powder Springs,GA,30127,33.8584428,-84.6740398
Waffle House,"meal_takeaway, restaurant, food, point_of_interest, establishment","4030 Chapel Hill Rd, Douglasville, GA 30135, USA",Douglas County,Douglasville,GA,30135,33.6969339,-84.7156017
Waffle House,"meal_takeaway, restaurant, food, point_of_interest, establishment","3255 Florence Rd, Powder Springs, GA 30127, USA",Cobb County,Powder Springs,GA,30127,33.8752033,-84.7026245
Waffle House,"meal_takeaway, restaurant, food, point_of_interest, establishment","2111 Fairburn Rd, Douglasville, GA 30135, USA",Douglas County,Douglasville,GA,30135,33.7473148,-84.7014319
Waffle House,"meal_takeaway, restaurant, point_of_interest, food, establishment","6026 Bethelview Rd, Cumming, GA 30040, USA",Forsyth County,Cumming,GA,30040,34.1631845,-84.1762061
Waffle House,"meal_takeaway, restaurant, point_of_interest, food, establishment","903 Buford Rd, Cumming, GA 30041, USA",Forsyth County,Cumming,GA,30041,34.1791638,-84.1332541
